STARLINK-32037          
1 60283U 24132F   26068.39311660  .00000058  00000+0  14079-4 0  9999
2 60283  53.1605  53.9022 0001143  97.8508 262.2622 15.30186883 91519
TEVEL2-3                
1 63218U 25052J   26068.64540225  .00020365  00000+0  69446-3 0  9991
2 63218  97.3994 324.7775 0004761 105.7353 254.4413 15.30377031 54855
